[Satellite]
VERSION=1.1
NAME=STARLINK-5004
NICKNAME=STARLINK-5004
TLE1=1 53923U 22119AP  22296.91667824 -.00057111  00000+0 -40485-3 0  9991
TLE2=2 53923  53.2148 109.7003 0001339  60.3246  48.2512 15.73223761  1307
STATUS=0
